[{"OBJECT_NAME":"TIANQI-25","OBJECT_ID":"2024-102A","EPOCH":"2026-03-09T21:59:20.408352","MEAN_MOTION":13.99133359,"ECCENTRICITY":0.00097008,"INCLINATION":44.9789,"RA_OF_ASC_NODE":343.6735,"ARG_OF_PERICENTER":130.7366,"MEAN_ANOMALY":229.431,"EPHEMERIS_TYPE":0,"CLASSIFICATION_TYPE":"U","NORAD_CAT_ID":59909,"ELEMENT_SET_NO":999,"REV_AT_EPOCH":9100,"BSTAR":0.00024425271,"MEAN_MOTION_DOT":2.28e-6,"MEAN_MOTION_DDOT":0},{"OBJECT_NAME":"OPS 6432","OBJECT_ID":"1983-056A","EPOCH":"2026-03-09T09:42:49.398624","MEAN_MOTION":13.88372019,"ECCENTRICITY":0.06998718,"INCLINATION":63.303,"RA_OF_ASC_NODE":88.4155,"ARG_OF_PERICENTER":131.4024,"MEAN_ANOMALY":234.9391,"EPHEMERIS_TYPE":0,"CLASSIFICATION_TYPE":"U","NORAD_CAT_ID":14112,"ELEMENT_SET_NO":999,"REV_AT_EPOCH":9444,"BSTAR":0.00034445981,"MEAN_MOTION_DOT":3.135e-5,"MEAN_MOTION_DDOT":0}]
